STARLINK-36339          
1 67340U 26003G   26033.58335648 -.00191457  00000+0 -33279-2 0  9991
2 67340  42.9996  66.8453 0001594 277.8471 218.7069 15.50663457  5031
STARLINK-36453          
1 67341U 26003H   26033.58335648 -.00201045  00000+0 -34998-2 0  9996
2 67341  42.9995  66.8395 0001613 274.4517 224.0357 15.50657930  5031
STARLINK-36432          
1 67342U 26003J   26033.58335648 -.00000571  00000+0 -39129-5 0  9992
2 67342  42.9996  66.8346 0001312 282.0236 218.3830 15.50562425  5023
STARLINK-36458          
1 67343U 26003K   26033.58335648 -.00138489  00000+0 -23879-2 0  9995
2 67343  42.9996  66.8307 0001448 274.6741 227.5505 15.50682423  5032
STARLINK-36422          
1 67344U 26003L   26033.58335648 -.00003738  00000+0 -57964-4 0  9998
2 67344  42.9996  66.8240 0001237 282.0332 222.2094 15.50564549  5026
STARLINK-35676          
1 67345U 26003M   26033.58335648 -.00098835  00000+0 -16948-2 0  9996
2 67345  42.9997  66.8205 0001826 275.6379 230.4056 15.50666636  5021
STARLINK-36472          
1 67346U 26003N   26033.58335648 -.00093338  00000+0 -15993-2 0  9999
2 67346  42.9996  66.8157 0001618 271.0014 236.9566 15.50664287  5029
STARLINK-36420          
1 67347U 26003P   26033.58335648 -.00104678  00000+0 -17965-2 0  9991
2 67347  42.9996  66.8066 0001678 277.1810 234.6147 15.50669760  5038
STARLINK-36467          
1 67348U 26003Q   26033.58335648 -.00118706  00000+0 -20415-2 0  9993
2 67348  42.9997  66.8112 0001787 277.3414 232.5460 15.50672743  5035
STARLINK-36457          
1 67349U 26003R   26033.58335648  .00116092  00000+0  19616-2 0  9999
2 67349  42.9995  66.8003 0001717 273.9148 239.9458 15.50490644  5038
STARLINK-36475          
1 67350U 26003S   26033.58335648 -.00116523  00000+0 -20032-2 0  9996
2 67350  42.9995  66.7962 0001652 279.1732 236.4578 15.50674627  5027
STARLINK-36478          
1 67351U 26003T   26033.58335648 -.00002713  00000+0 -40470-4 0  9992
2 67351  42.9996  66.7907 0001134 285.6034 232.0601 15.50563150  5027
